{
  "norad_id": 46142,
  "name": "STARLINK-1597",
  "history": [
    {
      "epoch": "2026-03-28T22:00:01.999584Z",
      "apogee_km": 390.13868401815125,
      "perigee_km": 384.350899895132,
      "latitude_deg": 32.31927210584967,
      "longitude_deg": -161.12124365303913,
      "height_km": 390.64175999753746,
      "semi_major_axis_km": 6765.381791956641,
      "eccentricity": 0.00042775,
      "inclination_deg": 53.0456,
      "raan_deg": 203.4649,
      "arg_perigee_deg": 255.3402,
      "mean_anomaly_deg": 242.8588,
      "mean_motion_rev_day": 15.60142604
    },
    {
      "epoch": "2026-03-29T00:29:07.558368Z",
      "apogee_km": 390.16047346383766,
      "perigee_km": 384.32059957431466,
      "latitude_deg": -1.681378231412271e-06,
      "longitude_deg": 9.246588590698142,
      "height_km": 388.9491816182389,
      "semi_major_axis_km": 6765.377536519076,
      "eccentricity": 0.0004316,
      "inclination_deg": 53.047,
      "raan_deg": 202.9604,
      "arg_perigee_deg": 253.9799,
      "mean_anomaly_deg": 106.0738,
      "mean_motion_rev_day": 15.60144076
    },
    {
      "epoch": "2026-03-30T00:00:01.999296Z",
      "apogee_km": 389.29625954057155,
      "perigee_km": 383.3164915965681,
      "latitude_deg": 50.055058980269486,
      "longitude_deg": 127.49111303521546,
      "height_km": 394.8374024833758,
      "semi_major_axis_km": 6764.4433755685695,
      "eccentricity": 0.000442,
      "inclination_deg": 53.0464,
      "raan_deg": 198.1847,
      "arg_perigee_deg": 262.4435,
      "mean_anomaly_deg": 204.3897,
      "mean_motion_rev_day": 15.60467268
    },
    {
      "epoch": "2026-03-30T00:00:02.000160Z",
      "apogee_km": 389.2963948294382,
      "perigee_km": 383.3163563077005,
      "latitude_deg": 50.055059316824654,
      "longitude_deg": 127.49110805355237,
      "height_km": 394.8375257934356,
      "semi_major_axis_km": 6764.4433755685695,
      "eccentricity": 0.00044202,
      "inclination_deg": 53.0464,
      "raan_deg": 198.1847,
      "arg_perigee_deg": 262.4435,
      "mean_anomaly_deg": 204.3897,
      "mean_motion_rev_day": 15.60467268
    },
    {
      "epoch": "2026-03-30T14:00:03.000384Z",
      "apogee_km": 388.6915782203314,
      "perigee_km": 382.88785853889385,
      "latitude_deg": 26.68845055565275,
      "longitude_deg": -44.73320357250059,
      "height_km": 388.56989793698096,
      "semi_major_axis_km": 6763.926718379613,
      "eccentricity": 0.00042902,
      "inclination_deg": 53.0467,
      "raan_deg": 195.3416,
      "arg_perigee_deg": 269.0516,
      "mean_anomaly_deg": 236.8991,
      "mean_motion_rev_day": 15.60646064
    }
  ]
}